1 00000U 20001Z   21001.00000000 +.00000145  00000-0 +32923-4 0  0017
2 00000 107.6000 150.0000 0008000 130.0000 000.0000 14.89338871563537